{"type":"FeatureCollection","features":[{"type":"Feature","properties":{},"geometry":{"type":"Polygon","coordinates":[[[112.103366,-7.597108],[112.103249,-7.597507],[112.103249,-7.597512],[112.103938,-7.597711],[112.104035,-7.597395],[112.103794,-7.597237],[112.103366,-7.597108]]]}},{"type":"Feature","properties":{},"geometry":{"type":"Polygon","coordinates":[[[112.103353,-7.597111],[112.102805,-7.59695],[112.102695,-7.597367],[112.103249,-7.597496],[112.103353,-7.597111]]]}},{"type":"Feature","properties":{},"geometry":{"type":"Polygon","coordinates":[[[112.102918,-7.596548],[112.102797,-7.596941],[112.103133,-7.59702],[112.103243,-7.596623],[112.102918,-7.596548]]]}},{"type":"Feature","properties":{},"geometry":{"type":"Polygon","coordinates":[[[112.10267,-7.596191],[112.10238,-7.597294],[112.10238,-7.597294],[112.10238,-7.597294],[112.102689,-7.597379],[112.102968,-7.596272],[112.10267,-7.596191]]]}},{"type":"Feature","properties":{},"geometry":{"type":"Polygon","coordinates":[[[112.101935,-7.597211],[112.101706,-7.597976],[112.102146,-7.598074],[112.102347,-7.597328],[112.101935,-7.597211]]]}},{"type":"Feature","properties":{},"geometry":{"type":"Polygon","coordinates":[[[112.102079,-7.596047],[112.101783,-7.597106],[112.102373,-7.597251],[112.102655,-7.596206],[112.102079,-7.596047]]]}},{"type":"Feature","properties":{},"geometry":{"type":"Polygon","coordinates":[[[112.103105,-7.596259],[112.103194,-7.596012],[112.102845,-7.595884],[112.102765,-7.596182],[112.103105,-7.596259]]]}},{"type":"Feature","properties":{},"geometry":{"type":"Polygon","coordinates":[[[112.102736,-7.596168],[112.10285,-7.595587],[112.102518,-7.595473],[112.10259,-7.595218],[112.102161,-7.595019],[112.101906,-7.595941],[112.101912,-7.595953],[112.102736,-7.596168]]]}},{"type":"Feature","properties":{},"geometry":{"type":"Polygon","coordinates":[[[112.102066,-7.594129],[112.10198,-7.594532],[112.102618,-7.594674],[112.10271,-7.594288],[112.102066,-7.594129]]]}},{"type":"Feature","properties":{},"geometry":{"type":"Polygon","coordinates":[[[112.101989,-7.594555],[112.10188,-7.594895],[112.102507,-7.595111],[112.102624,-7.594717],[112.101989,-7.594555]]]}},{"type":"Feature","properties":{},"geometry":{"type":"Polygon","coordinates":[[[112.101651,-7.594859],[112.101591,-7.595137],[112.102083,-7.59525],[112.102134,-7.595029],[112.101651,-7.594859]]]}},{"type":"Feature","properties":{},"geometry":{"type":"Polygon","coordinates":[[[112.101525,-7.593891],[112.101367,-7.594388],[112.101968,-7.594532],[112.102066,-7.59403],[112.101525,-7.593891]]]}},{"type":"Feature","properties":{},"geometry":{"type":"Polygon","coordinates":[[[112.101387,-7.594397],[112.101286,-7.594698],[112.10187,-7.594885],[112.101965,-7.59455],[112.101387,-7.594397]]]}},{"type":"Feature","properties":{},"geometry":{"type":"Polygon","coordinates":[[[112.101059,-7.594627],[112.100991,-7.594928],[112.100987,-7.594928],[112.101587,-7.595128],[112.101639,-7.59484],[112.101059,-7.594627]]]}},{"type":"Feature","properties":{},"geometry":{"type":"Polygon","coordinates":[[[112.100978,-7.59486],[112.10044,-7.594734],[112.100264,-7.59547],[112.100795,-7.595599],[112.100978,-7.59486]]]}},{"type":"Feature","properties":{},"geometry":{"type":"Polygon","coordinates":[[[112.100596,-7.594484],[112.100541,-7.594743],[112.100994,-7.594853],[112.101044,-7.594631],[112.100596,-7.594484]]]}},{"type":"Feature","properties":{},"geometry":{"type":"Polygon","coordinates":[[[112.100655,-7.593637],[112.100449,-7.594422],[112.100661,-7.594496],[112.100889,-7.593708],[112.100655,-7.593637]]]}},{"type":"Feature","properties":{},"geometry":{"type":"Polygon","coordinates":[[[112.100621,-7.593617],[112.09995,-7.593442],[112.099948,-7.59344],[112.099742,-7.594241],[112.100417,-7.594408],[112.100621,-7.593617]]]}},{"type":"Feature","properties":{},"geometry":{"type":"Polygon","coordinates":[[[112.100395,-7.592923],[112.100158,-7.593376],[112.100158,-7.593379],[112.100824,-7.593601],[112.100926,-7.593074],[112.100395,-7.592923]]]}},{"type":"Feature","properties":{},"geometry":{"type":"Polygon","coordinates":[[[112.099549,-7.593302],[112.099292,-7.594377],[112.099638,-7.594486],[112.099928,-7.593403],[112.099549,-7.593302]]]}},{"type":"Feature","properties":{},"geometry":{"type":"Polygon","coordinates":[[[112.099034,-7.592866],[112.098608,-7.595046],[112.099187,-7.595222],[112.099527,-7.593304],[112.099527,-7.593289],[112.099522,-7.593299],[112.099537,-7.593274],[112.099034,-7.592866]]]}},{"type":"Feature","properties":{},"geometry":{"type":"Polygon","coordinates":[[[112.097567,-7.591793],[112.097012,-7.594274],[112.098537,-7.595128],[112.099028,-7.592831],[112.097567,-7.591793]]]}},{"type":"Feature","properties":{},"geometry":{"type":"Polygon","coordinates":[[[112.095489,-7.592205],[112.097316,-7.592754],[112.097565,-7.591799],[112.095489,-7.592205]]]}},{"type":"Feature","properties":{},"geometry":{"type":"Polygon","coordinates":[[[112.095318,-7.592199],[112.095204,-7.59251],[112.097237,-7.593136],[112.097311,-7.592809],[112.095318,-7.592199]]]}},{"type":"Feature","properties":{},"geometry":{"type":"Polygon","coordinates":[[[112.095176,-7.592538],[112.095045,-7.592865],[112.097143,-7.593544],[112.097213,-7.593172],[112.095176,-7.592538]]]}},{"type":"Feature","properties":{},"geometry":{"type":"Polygon","coordinates":[[[112.093382,-7.592331],[112.093701,-7.592575],[112.093701,-7.592575],[112.093508,-7.592978],[112.09388,-7.593173],[112.093164,-7.594054],[112.094053,-7.594406],[112.093941,-7.595323],[112.094713,-7.595469],[112.094571,-7.594552],[112.094505,-7.59423],[112.095257,-7.592135],[112.095125,-7.591969],[112.093382,-7.592331]]]}},{"type":"Feature","properties":{},"geometry":{"type":"Polygon","coordinates":[[[112.09482,-7.593551],[112.094529,-7.594296],[112.094882,-7.595921],[112.095374,-7.596015],[112.09558,-7.594675],[112.095844,-7.594755],[112.095697,-7.59611],[112.096476,-7.596314],[112.096959,-7.594176],[112.09482,-7.593551]]]}},{"type":"Feature","properties":{},"geometry":{"type":"Polygon","coordinates":[[[112.093164,-7.594062],[112.09293,-7.594732],[112.09315,-7.595477],[112.093378,-7.595347],[112.093447,-7.595204],[112.093912,-7.595306],[112.094029,-7.594418],[112.093164,-7.594062]]]}},{"type":"Feature","properties":{},"geometry":{"type":"Polygon","coordinates":[[[112.093142,-7.595491],[112.093359,-7.596444],[112.093983,-7.596571],[112.094107,-7.595381],[112.093462,-7.595269],[112.093393,-7.595392],[112.093142,-7.595491]]]}},{"type":"Feature","properties":{},"geometry":{"type":"Polygon","coordinates":[[[112.094152,-7.595405],[112.094007,-7.596577],[112.094007,-7.596577],[112.09399,-7.596577],[112.094631,-7.596776],[112.094652,-7.595518],[112.094152,-7.595405]]]}},{"type":"Feature","properties":{},"geometry":{"type":"Polygon","coordinates":[[[112.093887,-7.596576],[112.093961,-7.597601],[112.094422,-7.59791],[112.09451,-7.596773],[112.093887,-7.596576]]]}},{"type":"Feature","properties":{},"geometry":{"type":"Polygon","coordinates":[[[112.095255,-7.59607],[112.095165,-7.597055],[112.095372,-7.59741],[112.095526,-7.596119],[112.095255,-7.59607]]]}},{"type":"Feature","properties":{},"geometry":{"type":"Polygon","coordinates":[[[112.095823,-7.596215],[112.095684,-7.597445],[112.096648,-7.597758],[112.096886,-7.596518],[112.095823,-7.596215]]]}},{"type":"Feature","properties":{},"geometry":{"type":"Polygon","coordinates":[[[112.096816,-7.595096],[112.096511,-7.596348],[112.097131,-7.596522],[112.097406,-7.59527],[112.096816,-7.595096]]]}},{"type":"Feature","properties":{},"geometry":{"type":"Polygon","coordinates":[[[112.090739,-7.592028],[112.090456,-7.592468],[112.090766,-7.592424],[112.090906,-7.59211],[112.090739,-7.592028]]]}},{"type":"Feature","properties":{},"geometry":{"type":"Polygon","coordinates":[[[112.090927,-7.592104],[112.090783,-7.592419],[112.091318,-7.592299],[112.090927,-7.592104]]]}},{"type":"Feature","properties":{},"geometry":{"type":"Polygon","coordinates":[[[112.091059,-7.591519],[112.090745,-7.591987],[112.091107,-7.592149],[112.09131,-7.591683],[112.091269,-7.591588],[112.091059,-7.591519]]]}},{"type":"Feature","properties":{},"geometry":{"type":"Polygon","coordinates":[[[112.091214,-7.591969],[112.091131,-7.592164],[112.09137,-7.592304],[112.091559,-7.592262],[112.0916,-7.592098],[112.091214,-7.591969]]]}},{"type":"Feature","properties":{},"geometry":{"type":"Polygon","coordinates":[[[112.091327,-7.591686],[112.091231,-7.591942],[112.091621,-7.592087],[112.091697,-7.59178],[112.091327,-7.591686]]]}},{"type":"Feature","properties":{},"geometry":{"type":"Polygon","coordinates":[[[112.090736,-7.591385],[112.091281,-7.591561],[112.091312,-7.59166],[112.091728,-7.591748],[112.091806,-7.59144],[112.090977,-7.591135],[112.090787,-7.591288],[112.090736,-7.591385]]]}},{"type":"Feature","properties":{},"geometry":{"type":"Polygon","coordinates":[[[112.091922,-7.59113],[112.091581,-7.592241],[112.091793,-7.592193],[112.092059,-7.591183],[112.091922,-7.59113]]]}},{"type":"Feature","properties":{},"geometry":{"type":"Polygon","coordinates":[[[112.090995,-7.591105],[112.091821,-7.591413],[112.091917,-7.59102],[112.091341,-7.590841],[112.090995,-7.591105]]]}},{"type":"Feature","properties":{},"geometry":{"type":"Polygon","coordinates":[[[112.091845,-7.590631],[112.091772,-7.590939],[112.091935,-7.591022],[112.091925,-7.59111],[112.092326,-7.591258],[112.092423,-7.590888],[112.091845,-7.590631]]]}},{"type":"Feature","properties":{},"geometry":{"type":"Polygon","coordinates":[[[112.092151,-7.592103],[112.092348,-7.592087],[112.092596,-7.591368],[112.092406,-7.591306],[112.092151,-7.592103]]]}},{"type":"Feature","properties":{},"geometry":{"type":"Polygon","coordinates":[[[112.092516,-7.591689],[112.092387,-7.592076],[112.093256,-7.591901],[112.093238,-7.591806],[112.092516,-7.591689]]]}},{"type":"Feature","properties":{},"geometry":{"type":"Polygon","coordinates":[[[112.092611,-7.591376],[112.092532,-7.591673],[112.092917,-7.591732],[112.09298,-7.591482],[112.092611,-7.591376]]]}},{"type":"Feature","properties":{},"geometry":{"type":"Polygon","coordinates":[[[112.093005,-7.591534],[112.092951,-7.591722],[112.093277,-7.591799],[112.093355,-7.591582],[112.093018,-7.591489],[112.093005,-7.591534]]]}},{"type":"Feature","properties":{},"geometry":{"type":"Polygon","coordinates":[[[112.093396,-7.591618],[112.093305,-7.591865],[112.093926,-7.591757],[112.093396,-7.591618]]]}},{"type":"Feature","properties":{},"geometry":{"type":"Polygon","coordinates":[[[112.093024,-7.591454],[112.09396,-7.591737],[112.094024,-7.591491],[112.093557,-7.591372],[112.09312,-7.591206],[112.093024,-7.591454]]]}},{"type":"Feature","properties":{},"geometry":{"type":"Polygon","coordinates":[[[112.093226,-7.590959],[112.093143,-7.591193],[112.093572,-7.591361],[112.09364,-7.591182],[112.093226,-7.590959]]]}},{"type":"Feature","properties":{},"geometry":{"type":"Polygon","coordinates":[[[112.097756,-7.598979],[112.097657,-7.599429],[112.097657,-7.599429],[112.100301,-7.599599],[112.100374,-7.599225],[112.097756,-7.598979]]]}},{"type":"Feature","properties":{},"geometry":{"type":"Polygon","coordinates":[[[112.097576,-7.599791],[112.097547,-7.600128],[112.100169,-7.600273],[112.100208,-7.599894],[112.097576,-7.599791]]]}},{"type":"Feature","properties":{},"geometry":{"type":"Polygon","coordinates":[[[112.097758,-7.600175],[112.097734,-7.600621],[112.100109,-7.600791],[112.100123,-7.600438],[112.100148,-7.600293],[112.097758,-7.600175]]]}},{"type":"Feature","properties":{},"geometry":{"type":"Polygon","coordinates":[[[112.100279,-7.600051],[112.100159,-7.600792],[112.101495,-7.600827],[112.101605,-7.600145],[112.100279,-7.600051]]]}},{"type":"Feature","properties":{},"geometry":{"type":"Polygon","coordinates":[[[112.101647,-7.600179],[112.101537,-7.600847],[112.101915,-7.600835],[112.101878,-7.600226],[112.101647,-7.600179]]]}},{"type":"Feature","properties":{},"geometry":{"type":"Polygon","coordinates":[[[112.100335,-7.599613],[112.100282,-7.600007],[112.101639,-7.600099],[112.101686,-7.599772],[112.100335,-7.599613]]]}},{"type":"Feature","properties":{},"geometry":{"type":"Polygon","coordinates":[[[112.100356,-7.599446],[112.100337,-7.599603],[112.101694,-7.599742],[112.101701,-7.599556],[112.100356,-7.599446]]]}},{"type":"Feature","properties":{},"geometry":{"type":"Polygon","coordinates":[[[112.100416,-7.599247],[112.100382,-7.599442],[112.101542,-7.599531],[112.101573,-7.599366],[112.100416,-7.599247]]]}},{"type":"Feature","properties":{},"geometry":{"type":"Polygon","coordinates":[[[112.100443,-7.599073],[112.100446,-7.599236],[112.101802,-7.599391],[112.101829,-7.599192],[112.100443,-7.599073]]]}},{"type":"Feature","properties":{},"geometry":{"type":"Polygon","coordinates":[[[112.100587,-7.598788],[112.1005,-7.599068],[112.101825,-7.59917],[112.101826,-7.599106],[112.101795,-7.599082],[112.100587,-7.598788]]]}},{"type":"Feature","properties":{},"geometry":{"type":"Polygon","coordinates":[[[112.101859,-7.599311],[112.101834,-7.599525],[112.102686,-7.599527],[112.101859,-7.599311]]]}},{"type":"Feature","properties":{},"geometry":{"type":"Polygon","coordinates":[[[112.101915,-7.598896],[112.101855,-7.599287],[112.103051,-7.599566],[112.103138,-7.599211],[112.101915,-7.598896]]]}},{"type":"Feature","properties":{},"geometry":{"type":"Polygon","coordinates":[[[112.100905,-7.598649],[112.100865,-7.598831],[112.101852,-7.59907],[112.101872,-7.598882],[112.100905,-7.598649]]]}},{"type":"Feature","properties":{},"geometry":{"type":"Polygon","coordinates":[[[112.100883,-7.598441],[112.100833,-7.59862],[112.101903,-7.598873],[112.101948,-7.598675],[112.100883,-7.598441]]]}},{"type":"Feature","properties":{},"geometry":{"type":"Polygon","coordinates":[[[112.10135,-7.598366],[112.101314,-7.598537],[112.101939,-7.598664],[112.102008,-7.598497],[112.10135,-7.598366]]]}},{"type":"Feature","properties":{},"geometry":{"type":"Polygon","coordinates":[[[112.102096,-7.598076],[112.101121,-7.597851],[112.10101,-7.598113],[112.100828,-7.598054],[112.100788,-7.598209],[112.101993,-7.598474],[112.102096,-7.598076]]]}},{"type":"Feature","properties":{},"geometry":{"type":"Polygon","coordinates":[[[112.103116,-7.599531],[112.103635,-7.599573],[112.10378,-7.599038],[112.103236,-7.598851],[112.103116,-7.599531]]]}},{"type":"Feature","properties":{},"geometry":{"type":"Polygon","coordinates":[[[112.103135,-7.599175],[112.103216,-7.598853],[112.102004,-7.598513],[112.101937,-7.598878],[112.103135,-7.599175]]]}},{"type":"Feature","properties":{},"geometry":{"type":"Polygon","coordinates":[[[112.102136,-7.598134],[112.102037,-7.598462],[112.103774,-7.598989],[112.103907,-7.598588],[112.102136,-7.598134]]]}},{"type":"Feature","properties":{},"geometry":{"type":"Polygon","coordinates":[[[112.104091,-7.597573],[112.10376,-7.598553],[112.103969,-7.59861],[112.10423,-7.597593],[112.104091,-7.597573]]]}},{"type":"Feature","properties":{},"geometry":{"type":"Polygon","coordinates":[[[112.102584,-7.60044],[112.102608,-7.60088],[112.103248,-7.600959],[112.103362,-7.60044],[112.102584,-7.60044]]]}},{"type":"Feature","properties":{},"geometry":{"type":"Polygon","coordinates":[[[112.103451,-7.600493],[112.103274,-7.600942],[112.104071,-7.601008],[112.104215,-7.60071],[112.103451,-7.600493]]]}},{"type":"Feature","properties":{},"geometry":{"type":"Polygon","coordinates":[[[112.103541,-7.600126],[112.103445,-7.600454],[112.104171,-7.600677],[112.104303,-7.600265],[112.103859,-7.600169],[112.103541,-7.600126]]]}},{"type":"Feature","properties":{},"geometry":{"type":"Polygon","coordinates":[[[112.103549,-7.600074],[112.104283,-7.600229],[112.104877,-7.598884],[112.103937,-7.598637],[112.103549,-7.600074]]]}},{"type":"Feature","properties":{},"geometry":{"type":"Polygon","coordinates":[[[112.104222,-7.597849],[112.103977,-7.598609],[112.104848,-7.598835],[112.105171,-7.598126],[112.104222,-7.597849]]]}},{"type":"Feature","properties":{},"geometry":{"type":"Polygon","coordinates":[[[112.104501,-7.596884],[112.104238,-7.597787],[112.105187,-7.598102],[112.105523,-7.59711],[112.104501,-7.596884]]]}},{"type":"Feature","properties":{},"geometry":{"type":"Polygon","coordinates":[[[112.103349,-7.596351],[112.103163,-7.597011],[112.104002,-7.597272],[112.104091,-7.597331],[112.104052,-7.597515],[112.104285,-7.597574],[112.104556,-7.596647],[112.103349,-7.596351]]]}},{"type":"Feature","properties":{},"geometry":{"type":"Polygon","coordinates":[[[112.105977,-7.596058],[112.104876,-7.595745],[112.104536,-7.596833],[112.105568,-7.59709],[112.105977,-7.596058]]]}},{"type":"Feature","properties":{},"geometry":{"type":"Polygon","coordinates":[[[112.102637,-7.595214],[112.102627,-7.595429],[112.102928,-7.595553],[112.102886,-7.595827],[112.103233,-7.595941],[112.103196,-7.596241],[112.103653,-7.596389],[112.10385,-7.595505],[112.102637,-7.595214]]]}},{"type":"Feature","properties":{},"geometry":{"type":"Polygon","coordinates":[[[112.103901,-7.595571],[112.103705,-7.596398],[112.104573,-7.596639],[112.104851,-7.59576],[112.103901,-7.595571]]]}},{"type":"Feature","properties":{},"geometry":{"type":"Polygon","coordinates":[[[112.102751,-7.594149],[112.102525,-7.595121],[112.103898,-7.595486],[112.104128,-7.594508],[112.102751,-7.594149]]]}},{"type":"Feature","properties":{},"geometry":{"type":"Polygon","coordinates":[[[112.104126,-7.594509],[112.103927,-7.595473],[112.10599,-7.596044],[112.106231,-7.595299],[112.105125,-7.595015],[112.105151,-7.594795],[112.104126,-7.594509]]]}},{"type":"Feature","properties":{},"geometry":{"type":"Polygon","coordinates":[[[112.106289,-7.595259],[112.106586,-7.594507],[112.104392,-7.593767],[112.102328,-7.593807],[112.102306,-7.594024],[112.105186,-7.594794],[112.105187,-7.594968],[112.106289,-7.595259]]]}},{"type":"Feature","properties":{},"geometry":{"type":"Polygon","coordinates":[[[112.102297,-7.593247],[112.1023,-7.593709],[112.104055,-7.593661],[112.102297,-7.593247]]]}},{"type":"Feature","properties":{},"geometry":{"type":"Polygon","coordinates":[[[112.103152,-7.59207],[112.102934,-7.592531],[112.103603,-7.593048],[112.106728,-7.594163],[112.106945,-7.59349],[112.103991,-7.592583],[112.103565,-7.592488],[112.103152,-7.59207]]]}},{"type":"Feature","properties":{},"geometry":{"type":"Polygon","coordinates":[[[112.104731,-7.591882],[112.104515,-7.592707],[112.106979,-7.593409],[112.107252,-7.592762],[112.104731,-7.591882]]]}},{"type":"Feature","properties":{},"geometry":{"type":"Polygon","coordinates":[[[112.104666,-7.591907],[112.102202,-7.59108],[112.10203,-7.5915],[112.102379,-7.591848],[112.103074,-7.592126],[112.103106,-7.591974],[112.103209,-7.592013],[112.103645,-7.592458],[112.104493,-7.592642],[112.104666,-7.591907]]]}},{"type":"Feature","properties":{},"geometry":{"type":"Polygon","coordinates":[[[112.10125,-7.590789],[112.10096,-7.591846],[112.101858,-7.592185],[112.102146,-7.591107],[112.10125,-7.590789]]]}},{"type":"Feature","properties":{},"geometry":{"type":"Polygon","coordinates":[[[112.101196,-7.590786],[112.096588,-7.589306],[112.095768,-7.591448],[112.097275,-7.591274],[112.098323,-7.59132],[112.098506,-7.591243],[112.100551,-7.591841],[112.100923,-7.59172],[112.101196,-7.590786]]]}},{"type":"Feature","properties":{},"geometry":{"type":"Polygon","coordinates":[[[112.099709,-7.591718],[112.099599,-7.592469],[112.102251,-7.593068],[112.102381,-7.592358],[112.099709,-7.591718]]]}},{"type":"Feature","properties":{},"geometry":{"type":"Polygon","coordinates":[[[112.094401,-7.588511],[112.093657,-7.589074],[112.094909,-7.589637],[112.0952,-7.589832],[112.095063,-7.590678],[112.095814,-7.590948],[112.096485,-7.589262],[112.094401,-7.588511]]]}},{"type":"Feature","properties":{},"geometry":{"type":"Polygon","coordinates":[[[112.093788,-7.588313],[112.093613,-7.589021],[112.094348,-7.588484],[112.093788,-7.588313]]]}},{"type":"Feature","properties":{},"geometry":{"type":"Polygon","coordinates":[[[112.09482,-7.601005],[112.094738,-7.60129],[112.097472,-7.60063],[112.097439,-7.600457],[112.09482,-7.601005]]]}},{"type":"Feature","properties":{},"geometry":{"type":"Polygon","coordinates":[[[112.093982,-7.5991],[112.093617,-7.601563],[112.094762,-7.6013],[112.095112,-7.599239],[112.093982,-7.5991]]]}},{"type":"Feature","properties":{},"geometry":{"type":"Polygon","coordinates":[[[112.091733,-7.598339],[112.091677,-7.598653],[112.093435,-7.601613],[112.093989,-7.598785],[112.091733,-7.598339]]]}},{"type":"Feature","properties":{},"geometry":{"type":"Polygon","coordinates":[[[112.093984,-7.598701],[112.093873,-7.598227],[112.09196,-7.597897],[112.091794,-7.598272],[112.093984,-7.598701]]]}},{"type":"Feature","properties":{},"geometry":{"type":"Polygon","coordinates":[[[112.090738,-7.598208],[112.089921,-7.600928],[112.091748,-7.601207],[112.091628,-7.598611],[112.090738,-7.598208]]]}},{"type":"Feature","properties":{},"geometry":{"type":"Polygon","coordinates":[[[112.0934,-7.601711],[112.092738,-7.600483],[112.091706,-7.60064],[112.091772,-7.602406],[112.0934,-7.601711]]]}},{"type":"Feature","properties":{},"geometry":{"type":"Polygon","coordinates":[[[112.089879,-7.600914],[112.089447,-7.602476],[112.091745,-7.6024],[112.091698,-7.601241],[112.089879,-7.600914]]]}},{"type":"Feature","properties":{},"geometry":{"type":"Polygon","coordinates":[[[112.089628,-7.597394],[112.08953,-7.597882],[112.089628,-7.60132],[112.089529,-7.602168],[112.090676,-7.598072],[112.089628,-7.597394]]]}}]}